[{"OBJECT_NAME":"STARLINK-37226","OBJECT_ID":"2026-073T","EPOCH":"2026-04-27T19:51:51.763680","MEAN_MOTION":15.75224003,"ECCENTRICITY":0.0001246,"INCLINATION":97.2833,"RA_OF_ASC_NODE":316.052,"ARG_OF_PERICENTER":120.2323,"MEAN_ANOMALY":239.9065,"EPHEMERIS_TYPE":0,"CLASSIFICATION_TYPE":"U","NORAD_CAT_ID":68619,"ELEMENT_SET_NO":999,"REV_AT_EPOCH":329,"BSTAR":0.00078375,"MEAN_MOTION_DOT":0.00118581,"MEAN_MOTION_DDOT":0},{"OBJECT_NAME":"STARLINK-37211","OBJECT_ID":"2026-073U","EPOCH":"2026-04-27T07:12:17.127072","MEAN_MOTION":15.80957413,"ECCENTRICITY":5.26e-5,"INCLINATION":97.2833,"RA_OF_ASC_NODE":315.5452,"ARG_OF_PERICENTER":44.9095,"MEAN_ANOMALY":315.2216,"EPHEMERIS_TYPE":0,"CLASSIFICATION_TYPE":"U","NORAD_CAT_ID":68620,"ELEMENT_SET_NO":999,"REV_AT_EPOCH":321,"BSTAR":-0.0014429,"MEAN_MOTION_DOT":-0.00269866,"MEAN_MOTION_DDOT":0},{"OBJECT_NAME":"STARLINK-37269","OBJECT_ID":"2026-073V","EPOCH":"2026-04-27T12:35:18.337056","MEAN_MOTION":15.75215462,"ECCENTRICITY":0.0001345,"INCLINATION":97.2841,"RA_OF_ASC_NODE":315.6996,"ARG_OF_PERICENTER":89.9816,"MEAN_ANOMALY":270.1603,"EPHEMERIS_TYPE":0,"CLASSIFICATION_TYPE":"U","NORAD_CAT_ID":68621,"ELEMENT_SET_NO":999,"REV_AT_EPOCH":324,"BSTAR":0.00092494,"MEAN_MOTION_DOT":0.00140274,"MEAN_MOTION_DDOT":0},{"OBJECT_NAME":"STARLINK-37252","OBJECT_ID":"2026-073W","EPOCH":"2026-04-27T20:00:03.000384","MEAN_MOTION":15.75196684,"ECCENTRICITY":0.0001504,"INCLINATION":97.2834,"RA_OF_ASC_NODE":316.0526,"ARG_OF_PERICENTER":92.0274,"MEAN_ANOMALY":288.3239,"EPHEMERIS_TYPE":0,"CLASSIFICATION_TYPE":"U","NORAD_CAT_ID":68622,"ELEMENT_SET_NO":999,"REV_AT_EPOCH":435,"BSTAR":-0.00037014,"MEAN_MOTION_DOT":-0.00055001,"MEAN_MOTION_DDOT":0},{"OBJECT_NAME":"STARLINK-37284","OBJECT_ID":"2026-073X","EPOCH":"2026-04-27T07:10:07.172832","MEAN_MOTION":15.81779414,"ECCENTRICITY":0.0003693,"INCLINATION":97.2839,"RA_OF_ASC_NODE":315.5481,"ARG_OF_PERICENTER":10.6658,"MEAN_ANOMALY":349.4688,"EPHEMERIS_TYPE":0,"CLASSIFICATION_TYPE":"U","NORAD_CAT_ID":68623,"ELEMENT_SET_NO":999,"REV_AT_EPOCH":321,"BSTAR":-0.01482,"MEAN_MOTION_DOT":-0.02545325,"MEAN_MOTION_DDOT":0},{"OBJECT_NAME":"STARLINK-37231","OBJECT_ID":"2026-073Y","EPOCH":"2026-04-27T17:06:41.361408","MEAN_MOTION":15.75282159,"ECCENTRICITY":8.74e-5,"INCLINATION":97.284,"RA_OF_ASC_NODE":315.9027,"ARG_OF_PERICENTER":81.0984,"MEAN_ANOMALY":279.038,"EPHEMERIS_TYPE":0,"CLASSIFICATION_TYPE":"U","NORAD_CAT_ID":68624,"ELEMENT_SET_NO":999,"REV_AT_EPOCH":327,"BSTAR":0.001748,"MEAN_MOTION_DOT":0.00270092,"MEAN_MOTION_DDOT":0},{"OBJECT_NAME":"STARLINK-37249","OBJECT_ID":"2026-073Z","EPOCH":"2026-04-26T22:03:12.675744","MEAN_MOTION":15.80890058,"ECCENTRICITY":0.0001208,"INCLINATION":97.2844,"RA_OF_ASC_NODE":315.1462,"ARG_OF_PERICENTER":78.5663,"MEAN_ANOMALY":281.5741,"EPHEMERIS_TYPE":0,"CLASSIFICATION_TYPE":"U","NORAD_CAT_ID":68625,"ELEMENT_SET_NO":999,"REV_AT_EPOCH":315,"BSTAR":0.00097009,"MEAN_MOTION_DOT":0.00190431,"MEAN_MOTION_DDOT":0},{"OBJECT_NAME":"STARLINK-37285","OBJECT_ID":"2026-073AA","EPOCH":"2026-04-27T12:28:41.940768","MEAN_MOTION":15.75215149,"ECCENTRICITY":0.0001454,"INCLINATION":97.2837,"RA_OF_ASC_NODE":315.7056,"ARG_OF_PERICENTER":90.1257,"MEAN_ANOMALY":270.0175,"EPHEMERIS_TYPE":0,"CLASSIFICATION_TYPE":"U","NORAD_CAT_ID":68626,"ELEMENT_SET_NO":999,"REV_AT_EPOCH":324,"BSTAR":0.00088137,"MEAN_MOTION_DOT":0.00133553,"MEAN_MOTION_DDOT":0},{"OBJECT_NAME":"STP-S29A OBJECT A","OBJECT_ID":"2026-074A","EPOCH":"2026-04-27T19:19:41.515104","MEAN_MOTION":15.23400267,"ECCENTRICITY":0.0018401,"INCLINATION":60.0196,"RA_OF_ASC_NODE":11.5263,"ARG_OF_PERICENTER":327.796,"MEAN_ANOMALY":32.1995,"EPHEMERIS_TYPE":0,"CLASSIFICATION_TYPE":"U","NORAD_CAT_ID":68627,"ELEMENT_SET_NO":999,"REV_AT_EPOCH":310,"BSTAR":0.00040062,"MEAN_MOTION_DOT":9.381e-5,"MEAN_MOTION_DDOT":0},{"OBJECT_NAME":"MISR-C-1","OBJECT_ID":"2026-074B","EPOCH":"2026-04-27T19:17:45.695040","MEAN_MOTION":15.23506431,"ECCENTRICITY":0.0016842,"INCLINATION":60.0247,"RA_OF_ASC_NODE":11.5367,"ARG_OF_PERICENTER":330.675,"MEAN_ANOMALY":29.3383,"EPHEMERIS_TYPE":0,"CLASSIFICATION_TYPE":"U","NORAD_CAT_ID":68628,"ELEMENT_SET_NO":999,"REV_AT_EPOCH":309,"BSTAR":0.00047983,"MEAN_MOTION_DOT":0.00011324,"MEAN_MOTION_DDOT":0},{"OBJECT_NAME":"RAWHIDE-1","OBJECT_ID":"2026-074C","EPOCH":"2026-04-27T19:09:12.907584","MEAN_MOTION":15.23985524,"ECCENTRICITY":0.0020221,"INCLINATION":60.023,"RA_OF_ASC_NODE":11.5016,"ARG_OF_PERICENTER":335.8948,"MEAN_ANOMALY":24.1184,"EPHEMERIS_TYPE":0,"CLASSIFICATION_TYPE":"U","NORAD_CAT_ID":68629,"ELEMENT_SET_NO":999,"REV_AT_EPOCH":310,"BSTAR":0.00050921,"MEAN_MOTION_DOT":0.00012233,"MEAN_MOTION_DDOT":0},{"OBJECT_NAME":"STPSAT-7","OBJECT_ID":"2026-074D","EPOCH":"2026-04-27T19:04:09.877728","MEAN_MOTION":15.24161109,"ECCENTRICITY":0.0018409,"INCLINATION":60.0234,"RA_OF_ASC_NODE":11.4849,"ARG_OF_PERICENTER":340.81,"MEAN_ANOMALY":19.2285,"EPHEMERIS_TYPE":0,"CLASSIFICATION_TYPE":"U","NORAD_CAT_ID":68630,"ELEMENT_SET_NO":999,"REV_AT_EPOCH":309,"BSTAR":0.00029021,"MEAN_MOTION_DOT":6.872e-5,"MEAN_MOTION_DDOT":0},{"OBJECT_NAME":"STP-S29A OBJECT E","OBJECT_ID":"2026-074E","EPOCH":"2026-04-27T19:04:05.735712","MEAN_MOTION":15.24137616,"ECCENTRICITY":0.0019001,"INCLINATION":60.0229,"RA_OF_ASC_NODE":11.482,"ARG_OF_PERICENTER":340.7425,"MEAN_ANOMALY":19.2935,"EPHEMERIS_TYPE":0,"CLASSIFICATION_TYPE":"U","NORAD_CAT_ID":68631,"ELEMENT_SET_NO":999,"REV_AT_EPOCH":310,"BSTAR":0.00020761,"MEAN_MOTION_DOT":4.83e-5,"MEAN_MOTION_DDOT":0},{"OBJECT_NAME":"RAWHIDE-2","OBJECT_ID":"2026-074F","EPOCH":"2026-04-27T20:28:08.044896","MEAN_MOTION":15.24803574,"ECCENTRICITY":0.0019243,"INCLINATION":60.0325,"RA_OF_ASC_NODE":11.2213,"ARG_OF_PERICENTER":345.8998,"MEAN_ANOMALY":14.1543,"EPHEMERIS_TYPE":0,"CLASSIFICATION_TYPE":"U","NORAD_CAT_ID":68632,"ELEMENT_SET_NO":999,"REV_AT_EPOCH":310,"BSTAR":0.00053042,"MEAN_MOTION_DOT":0.00013069,"MEAN_MOTION_DDOT":0},{"OBJECT_NAME":"MISR-C-2","OBJECT_ID":"2026-074G","EPOCH":"2026-04-27T20:20:14.762976","MEAN_MOTION":15.25191863,"ECCENTRICITY":0.0020009,"INCLINATION":60.0234,"RA_OF_ASC_NODE":11.1659,"ARG_OF_PERICENTER":352.0727,"MEAN_ANOMALY":8.0035,"EPHEMERIS_TYPE":0,"CLASSIFICATION_TYPE":"U","NORAD_CAT_ID":68633,"ELEMENT_SET_NO":999,"REV_AT_EPOCH":310,"BSTAR":0.00052424,"MEAN_MOTION_DOT":0.00013073,"MEAN_MOTION_DDOT":0},{"OBJECT_NAME":"AGGIESAT6 (AGS6)","OBJECT_ID":"2026-074H","EPOCH":"2026-04-27T20:12:58.915584","MEAN_MOTION":15.2556806,"ECCENTRICITY":0.0020928,"INCLINATION":60.0228,"RA_OF_ASC_NODE":11.1377,"ARG_OF_PERICENTER":355.4655,"MEAN_ANOMALY":4.6233,"EPHEMERIS_TYPE":0,"CLASSIFICATION_TYPE":"U","NORAD_CAT_ID":68634,"ELEMENT_SET_NO":999,"REV_AT_EPOCH":311,"BSTAR":0.00046274,"MEAN_MOTION_DOT":0.00011641,"MEAN_MOTION_DDOT":0},{"OBJECT_NAME":"CANVAS","OBJECT_ID":"2026-074J","EPOCH":"2026-04-27T19:04:49.795392","MEAN_MOTION":15.24247889,"ECCENTRICITY":0.0020815,"INCLINATION":60.0244,"RA_OF_ASC_NODE":11.4924,"ARG_OF_PERICENTER":339.4392,"MEAN_ANOMALY":20.5849,"EPHEMERIS_TYPE":0,"CLASSIFICATION_TYPE":"U","NORAD_CAT_ID":68635,"ELEMENT_SET_NO":999,"REV_AT_EPOCH":310,"BSTAR":0.00060546,"MEAN_MOTION_DOT":0.00014726,"MEAN_MOTION_DDOT":0}]
