STARLINK-37226          
1 68619U 26073T   26117.82768245  .00118581  00000+0  78375-3 0  9993
2 68619  97.2833 316.0520 0001246 120.2323 239.9065 15.75224003  3294
STARLINK-37211          
1 68620U 26073U   26117.30019823 -.00269866  00000+0 -14429-2 0  9993
2 68620  97.2833 315.5452 0000526  44.9095 315.2216 15.80957413  3214
STARLINK-37269          
1 68621U 26073V   26117.52451779  .00140274  00000+0  92494-3 0  9996
2 68621  97.2841 315.6996 0001345  89.9816 270.1603 15.75215462  3245
STARLINK-37252          
1 68622U 26073W   26117.83336806 -.00055001  00000+0 -37014-3 0  9996
2 68622  97.2834 316.0526 0001504  92.0274 288.3239 15.75196684  4355
STARLINK-37284          
1 68623U 26073X   26117.29869413 -.02545325  00000+0 -14820-1 0  9995
2 68623  97.2839 315.5481 0003693  10.6658 349.4688 15.81779414  3214
STARLINK-37231          
1 68624U 26073Y   26117.71297872  .00270092  00000+0  17480-2 0  9995
2 68624  97.2840 315.9027 0000874  81.0984 279.0380 15.75282159  3270
STARLINK-37249          
1 68625U 26073Z   26116.91889671  .00190431  00000+0  97009-3 0  9995
2 68625  97.2844 315.1462 0001208  78.5663 281.5741 15.80890058  3152
STARLINK-37285          
1 68626U 26073AA  26117.51992987  .00133553  00000+0  88137-3 0  9992
2 68626  97.2837 315.7056 0001454  90.1257 270.0175 15.75215149  3242
STP-S29A OBJECT A       
1 68627U 26074A   26117.80534161  .00009381  00000+0  40062-3 0  9998
2 68627  60.0196  11.5263 0018401 327.7960  32.1995 15.23400267  3102
MISR-C-1                
1 68628U 26074B   26117.80400110  .00011324  00000+0  47983-3 0  9994
2 68628  60.0247  11.5367 0016842 330.6750  29.3383 15.23506431  3099
RAWHIDE-1               
1 68629U 26074C   26117.79806606  .00012233  00000+0  50921-3 0  9999
2 68629  60.0230  11.5016 0020221 335.8948  24.1184 15.23985524  3103
STPSAT-7                
1 68630U 26074D   26117.79455877  .00006872  00000+0  29021-3 0  9990
2 68630  60.0234  11.4849 0018409 340.8100  19.2285 15.24161109  3094
STP-S29A OBJECT E       
1 68631U 26074E   26117.79451083  .00004830  00000+0  20761-3 0  9990
2 68631  60.0229  11.4820 0019001 340.7425  19.2935 15.24137616  3106
RAWHIDE-2               
1 68632U 26074F   26117.85287089  .00013069  00000+0  53042-3 0  9993
2 68632  60.0325  11.2213 0019243 345.8998  14.1543 15.24803574  3109
MISR-C-2                
1 68633U 26074G   26117.84739309  .00013073  00000+0  52424-3 0  9998
2 68633  60.0234  11.1659 0020009 352.0727   8.0035 15.25191863  3104
AGGIESAT6 (AGS6)        
1 68634U 26074H   26117.84234856  .00011641  00000+0  46274-3 0  9991
2 68634  60.0228  11.1377 0020928 355.4655   4.6233 15.25568060  3112
CANVAS                  
1 68635U 26074J   26117.79502078  .00014726  00000+0  60546-3 0  9995
2 68635  60.0244  11.4924 0020815 339.4392  20.5849 15.24247889  3108
